CS2                     
1 49262U 21088C   26068.73485932  .00018033  00000+0  56178-3 0  9999
2 49262  97.3928 134.2907 0011637  82.3491 277.9072 15.33255930245263
STARLINK-32400          
1 61669U 24193J   26068.46592596 -.00004872  00000+0 -15270-3 0  9995
2 61669  53.1604  89.8226 0001045  79.4954 280.6164 15.30157214 76528
